[{"OBJECT_NAME":"MOZHAETS 4 (RS22)","OBJECT_ID":"2003-042A","EPOCH":"2026-03-10T00:04:00.929856","MEAN_MOTION":14.73256247,"ECCENTRICITY":0.00104743,"INCLINATION":98.344,"RA_OF_ASC_NODE":250.5725,"ARG_OF_PERICENTER":219.0556,"MEAN_ANOMALY":256.8132,"EPHEMERIS_TYPE":0,"CLASSIFICATION_TYPE":"U","NORAD_CAT_ID":27939,"ELEMENT_SET_NO":999,"REV_AT_EPOCH":20094,"BSTAR":0.00028251283,"MEAN_MOTION_DOT":1.773e-5,"MEAN_MOTION_DDOT":0},{"OBJECT_NAME":"COSMOS 2251 DEB","OBJECT_ID":"1993-036AYW","EPOCH":"2026-03-04T20:05:54.697632","MEAN_MOTION":14.75602519,"ECCENTRICITY":0.00114294,"INCLINATION":74.0282,"RA_OF_ASC_NODE":270.3454,"ARG_OF_PERICENTER":325.6872,"MEAN_ANOMALY":34.3563,"EPHEMERIS_TYPE":0,"CLASSIFICATION_TYPE":"U","NORAD_CAT_ID":36369,"ELEMENT_SET_NO":999,"REV_AT_EPOCH":87132,"BSTAR":0.0018310016,"MEAN_MOTION_DOT":0.00012496,"MEAN_MOTION_DDOT":0}]
